[{"OBJECT_NAME":"NIGHTJAR","OBJECT_ID":"2024-149BV","EPOCH":"2026-03-29T05:03:57.565152","MEAN_MOTION":14.98530383,"ECCENTRICITY":0.0001112,"INCLINATION":97.6865,"RA_OF_ASC_NODE":166.0479,"ARG_OF_PERICENTER":94.4552,"MEAN_ANOMALY":265.6798,"EPHEMERIS_TYPE":0,"CLASSIFICATION_TYPE":"U","NORAD_CAT_ID":60535,"ELEMENT_SET_NO":999,"REV_AT_EPOCH":13089,"BSTAR":0.00041339,"MEAN_MOTION_DOT":4.891e-5,"MEAN_MOTION_DDOT":0},{"OBJECT_NAME":"LEMUR-2-MARHISYAM","OBJECT_ID":"2024-149BW","EPOCH":"2026-03-29T03:59:01.508352","MEAN_MOTION":15.09520897,"ECCENTRICITY":0.0002715,"INCLINATION":97.6901,"RA_OF_ASC_NODE":170.7431,"ARG_OF_PERICENTER":66.2252,"MEAN_ANOMALY":293.9261,"EPHEMERIS_TYPE":0,"CLASSIFICATION_TYPE":"U","NORAD_CAT_ID":60536,"ELEMENT_SET_NO":999,"REV_AT_EPOCH":8840,"BSTAR":0.0011455,"MEAN_MOTION_DOT":0.0001834,"MEAN_MOTION_DDOT":0},{"OBJECT_NAME":"SATELIOT_4","OBJECT_ID":"2024-149BX","EPOCH":"2026-03-29T04:51:17.856000","MEAN_MOTION":14.96348621,"ECCENTRICITY":9.0e-5,"INCLINATION":97.6768,"RA_OF_ASC_NODE":164.2053,"ARG_OF_PERICENTER":334.6419,"MEAN_ANOMALY":25.4758,"EPHEMERIS_TYPE":0,"CLASSIFICATION_TYPE":"U","NORAD_CAT_ID":60537,"ELEMENT_SET_NO":999,"REV_AT_EPOCH":8801,"BSTAR":0.00026314,"MEAN_MOTION_DOT":2.921e-5,"MEAN_MOTION_DDOT":0},{"OBJECT_NAME":"PICO-02A021","OBJECT_ID":"2024-149BY","EPOCH":"2026-03-29T04:50:53.918016","MEAN_MOTION":15.02448486,"ECCENTRICITY":0.0002267,"INCLINATION":97.6793,"RA_OF_ASC_NODE":167.7694,"ARG_OF_PERICENTER":297.2683,"MEAN_ANOMALY":62.8311,"EPHEMERIS_TYPE":0,"CLASSIFICATION_TYPE":"U","NORAD_CAT_ID":60538,"ELEMENT_SET_NO":999,"REV_AT_EPOCH":8772,"BSTAR":0.000593,"MEAN_MOTION_DOT":7.807e-5,"MEAN_MOTION_DDOT":0},{"OBJECT_NAME":"ICEYE-X43","OBJECT_ID":"2024-149BZ","EPOCH":"2026-03-29T03:53:12.147360","MEAN_MOTION":14.99492293,"ECCENTRICITY":0.0002602,"INCLINATION":97.6824,"RA_OF_ASC_NODE":166.2106,"ARG_OF_PERICENTER":42.2626,"MEAN_ANOMALY":317.8798,"EPHEMERIS_TYPE":0,"CLASSIFICATION_TYPE":"U","NORAD_CAT_ID":60539,"ELEMENT_SET_NO":999,"REV_AT_EPOCH":8812,"BSTAR":0.00040917,"MEAN_MOTION_DOT":4.964e-5,"MEAN_MOTION_DDOT":0},{"OBJECT_NAME":"HAWK-10A","OBJECT_ID":"2024-149CA","EPOCH":"2026-03-29T04:39:26.372736","MEAN_MOTION":14.96253546,"ECCENTRICITY":0.000319,"INCLINATION":97.6926,"RA_OF_ASC_NODE":165.4837,"ARG_OF_PERICENTER":2.3156,"MEAN_ANOMALY":357.8079,"EPHEMERIS_TYPE":0,"CLASSIFICATION_TYPE":"U","NORAD_CAT_ID":60540,"ELEMENT_SET_NO":999,"REV_AT_EPOCH":8802,"BSTAR":0.00015825,"MEAN_MOTION_DOT":1.729e-5,"MEAN_MOTION_DDOT":0},{"OBJECT_NAME":"UMBRA-09","OBJECT_ID":"2024-149CB","EPOCH":"2026-03-29T04:16:39.159264","MEAN_MOTION":15.15505963,"ECCENTRICITY":0.0001674,"INCLINATION":97.6975,"RA_OF_ASC_NODE":174.1737,"ARG_OF_PERICENTER":216.2566,"MEAN_ANOMALY":143.8553,"EPHEMERIS_TYPE":0,"CLASSIFICATION_TYPE":"U","NORAD_CAT_ID":60541,"ELEMENT_SET_NO":999,"REV_AT_EPOCH":8859,"BSTAR":0.0013671,"MEAN_MOTION_DOT":0.00025896,"MEAN_MOTION_DDOT":0},{"OBJECT_NAME":"QPS-SAR-8 (AMATERU-IV)","OBJECT_ID":"2024-149CC","EPOCH":"2026-03-29T05:00:23.521248","MEAN_MOTION":15.0329144,"ECCENTRICITY":0.0004304,"INCLINATION":97.6703,"RA_OF_ASC_NODE":168.0749,"ARG_OF_PERICENTER":51.9869,"MEAN_ANOMALY":308.1745,"EPHEMERIS_TYPE":0,"CLASSIFICATION_TYPE":"U","NORAD_CAT_ID":60542,"ELEMENT_SET_NO":999,"REV_AT_EPOCH":8825,"BSTAR":0.00061403,"MEAN_MOTION_DOT":8.271e-5,"MEAN_MOTION_DDOT":0},{"OBJECT_NAME":"ARCTIC WEATHER SATELLITE","OBJECT_ID":"2024-149CD","EPOCH":"2026-03-28T23:00:49.342752","MEAN_MOTION":14.89813747,"ECCENTRICITY":0.0002823,"INCLINATION":97.6849,"RA_OF_ASC_NODE":160.7002,"ARG_OF_PERICENTER":48.4212,"MEAN_ANOMALY":311.7247,"EPHEMERIS_TYPE":0,"CLASSIFICATION_TYPE":"U","NORAD_CAT_ID":60543,"ELEMENT_SET_NO":999,"REV_AT_EPOCH":8735,"BSTAR":0.00011851,"MEAN_MOTION_DOT":1.084e-5,"MEAN_MOTION_DDOT":0},{"OBJECT_NAME":"CAPELLA-15 (ACADIA-5)","OBJECT_ID":"2024-149CE","EPOCH":"2026-03-29T04:51:28.190304","MEAN_MOTION":14.92447377,"ECCENTRICITY":0.0002939,"INCLINATION":97.6813,"RA_OF_ASC_NODE":163.0852,"ARG_OF_PERICENTER":357.7851,"MEAN_ANOMALY":2.3355,"EPHEMERIS_TYPE":0,"CLASSIFICATION_TYPE":"U","NORAD_CAT_ID":60544,"ELEMENT_SET_NO":999,"REV_AT_EPOCH":8792,"BSTAR":0.001049,"MEAN_MOTION_DOT":0.0001071,"MEAN_MOTION_DDOT":0},{"OBJECT_NAME":"HAWK-10B","OBJECT_ID":"2024-149CF","EPOCH":"2026-03-29T04:39:17.659296","MEAN_MOTION":14.9625522,"ECCENTRICITY":0.0005469,"INCLINATION":97.6847,"RA_OF_ASC_NODE":164.9185,"ARG_OF_PERICENTER":14.7441,"MEAN_ANOMALY":345.3939,"EPHEMERIS_TYPE":0,"CLASSIFICATION_TYPE":"U","NORAD_CAT_ID":60545,"ELEMENT_SET_NO":999,"REV_AT_EPOCH":8802,"BSTAR":0.00017001,"MEAN_MOTION_DOT":1.862e-5,"MEAN_MOTION_DDOT":0},{"OBJECT_NAME":"ICEYE-X39","OBJECT_ID":"2024-149CG","EPOCH":"2026-03-29T05:00:18.196416","MEAN_MOTION":14.99355342,"ECCENTRICITY":0.0002819,"INCLINATION":97.6803,"RA_OF_ASC_NODE":166.3149,"ARG_OF_PERICENTER":344.6992,"MEAN_ANOMALY":15.4146,"EPHEMERIS_TYPE":0,"CLASSIFICATION_TYPE":"U","NORAD_CAT_ID":60546,"ELEMENT_SET_NO":999,"REV_AT_EPOCH":8813,"BSTAR":0.00039875,"MEAN_MOTION_DOT":4.819e-5,"MEAN_MOTION_DDOT":0},{"OBJECT_NAME":"UMBRA-10","OBJECT_ID":"2024-149CH","EPOCH":"2026-03-29T04:16:00.260256","MEAN_MOTION":15.1551147,"ECCENTRICITY":0.0001265,"INCLINATION":97.6981,"RA_OF_ASC_NODE":174.1946,"ARG_OF_PERICENTER":172.493,"MEAN_ANOMALY":187.6321,"EPHEMERIS_TYPE":0,"CLASSIFICATION_TYPE":"U","NORAD_CAT_ID":60547,"ELEMENT_SET_NO":999,"REV_AT_EPOCH":8860,"BSTAR":0.0013934,"MEAN_MOTION_DOT":0.00026401,"MEAN_MOTION_DDOT":0},{"OBJECT_NAME":"ICEYE-X33","OBJECT_ID":"2024-149CJ","EPOCH":"2026-03-29T04:10:29.548704","MEAN_MOTION":15.01339409,"ECCENTRICITY":0.000545,"INCLINATION":97.7054,"RA_OF_ASC_NODE":167.8592,"ARG_OF_PERICENTER":71.4993,"MEAN_ANOMALY":288.6822,"EPHEMERIS_TYPE":0,"CLASSIFICATION_TYPE":"U","NORAD_CAT_ID":60548,"ELEMENT_SET_NO":999,"REV_AT_EPOCH":8820,"BSTAR":0.0005256,"MEAN_MOTION_DOT":6.713e-5,"MEAN_MOTION_DDOT":0},{"OBJECT_NAME":"ICEYE-X40","OBJECT_ID":"2024-149CK","EPOCH":"2026-03-29T04:51:20.485152","MEAN_MOTION":14.97646596,"ECCENTRICITY":0.0004327,"INCLINATION":97.6832,"RA_OF_ASC_NODE":165.9904,"ARG_OF_PERICENTER":357.4259,"MEAN_ANOMALY":2.6941,"EPHEMERIS_TYPE":0,"CLASSIFICATION_TYPE":"U","NORAD_CAT_ID":60549,"ELEMENT_SET_NO":999,"REV_AT_EPOCH":8810,"BSTAR":0.00027865,"MEAN_MOTION_DOT":3.203e-5,"MEAN_MOTION_DDOT":0},{"OBJECT_NAME":"SATELIOT_1","OBJECT_ID":"2024-149CL","EPOCH":"2026-03-29T01:33:00.014400","MEAN_MOTION":14.97696741,"ECCENTRICITY":0.0006234,"INCLINATION":97.6773,"RA_OF_ASC_NODE":165.3064,"ARG_OF_PERICENTER":352.038,"MEAN_ANOMALY":8.0742,"EPHEMERIS_TYPE":0,"CLASSIFICATION_TYPE":"U","NORAD_CAT_ID":60550,"ELEMENT_SET_NO":999,"REV_AT_EPOCH":8807,"BSTAR":0.00021923,"MEAN_MOTION_DOT":2.511e-5,"MEAN_MOTION_DDOT":0},{"OBJECT_NAME":"BRO-14","OBJECT_ID":"2024-149CM","EPOCH":"2026-03-29T04:54:01.949472","MEAN_MOTION":14.95989725,"ECCENTRICITY":0.0006825,"INCLINATION":97.6904,"RA_OF_ASC_NODE":165.4166,"ARG_OF_PERICENTER":17.4896,"MEAN_ANOMALY":342.6559,"EPHEMERIS_TYPE":0,"CLASSIFICATION_TYPE":"U","NORAD_CAT_ID":60551,"ELEMENT_SET_NO":999,"REV_AT_EPOCH":8803,"BSTAR":0.00015513,"MEAN_MOTION_DOT":1.683e-5,"MEAN_MOTION_DDOT":0}]
