NIGHTJAR                
1 60535U 24149BV  26088.21108293  .00004891  00000+0  41339-3 0  9993
2 60535  97.6865 166.0479 0001112  94.4552 265.6798 14.98530383130897
LEMUR-2-MARHISYAM       
1 60536U 24149BW  26088.16598968  .00018340  00000+0  11455-2 0  9999
2 60536  97.6901 170.7431 0002715  66.2252 293.9261 15.09520897 88403
SATELIOT_4              
1 60537U 24149BX  26088.20229000  .00002921  00000+0  26314-3 0  9992
2 60537  97.6768 164.2053 0000900 334.6419  25.4758 14.96348621 88018
PICO-02A021             
1 60538U 24149BY  26088.20201294  .00007807  00000+0  59300-3 0  9997
2 60538  97.6793 167.7694 0002267 297.2683  62.8311 15.02448486 87726
ICEYE-X43               
1 60539U 24149BZ  26088.16194615  .00004964  00000+0  40917-3 0  9996
2 60539  97.6824 166.2106 0002602  42.2626 317.8798 14.99492293 88129
HAWK-10A                
1 60540U 24149CA  26088.19405524  .00001729  00000+0  15825-3 0  9991
2 60540  97.6926 165.4837 0003190   2.3156 357.8079 14.96253546 88022
UMBRA-09                
1 60541U 24149CB  26088.17823101  .00025896  00000+0  13671-2 0  9992
2 60541  97.6975 174.1737 0001674 216.2566 143.8553 15.15505963 88596
QPS-SAR-8 (AMATERU-IV)  
1 60542U 24149CC  26088.20860557  .00008271  00000+0  61403-3 0  9998
2 60542  97.6703 168.0749 0004304  51.9869 308.1745 15.03291440 88255
ARCTIC WEATHER SATELLITE
1 60543U 24149CD  26087.95890443  .00001084  00000+0  11851-3 0  9994
2 60543  97.6849 160.7002 0002823  48.4212 311.7247 14.89813747 87355
CAPELLA-15 (ACADIA-5)   
1 60544U 24149CE  26088.20240961  .00010710  00000+0  10490-2 0  9991
2 60544  97.6813 163.0852 0002939 357.7851   2.3355 14.92447377 87921
HAWK-10B                
1 60545U 24149CF  26088.19395439  .00001862  00000+0  17001-3 0  9995
2 60545  97.6847 164.9185 0005469  14.7441 345.3939 14.96255220 88022
ICEYE-X39               
1 60546U 24149CG  26088.20854394  .00004819  00000+0  39875-3 0  9996
2 60546  97.6803 166.3149 0002819 344.6992  15.4146 14.99355342 88139
UMBRA-10                
1 60547U 24149CH  26088.17778079  .00026401  00000+0  13934-2 0  9996
2 60547  97.6981 174.1946 0001265 172.4930 187.6321 15.15511470 88606
ICEYE-X33               
1 60548U 24149CJ  26088.17395311  .00006713  00000+0  52560-3 0  9994
2 60548  97.7054 167.8592 0005450  71.4993 288.6822 15.01339409 88201
ICEYE-X40               
1 60549U 24149CK  26088.20232043  .00003203  00000+0  27865-3 0  9992
2 60549  97.6832 165.9904 0004327 357.4259   2.6941 14.97646596 88102
SATELIOT_1              
1 60550U 24149CL  26088.06458350  .00002511  00000+0  21923-3 0  9999
2 60550  97.6773 165.3064 0006234 352.0380   8.0742 14.97696741 88076
BRO-14                  
1 60551U 24149CM  26088.20418923  .00001683  00000+0  15513-3 0  9995
2 60551  97.6904 165.4166 0006825  17.4896 342.6559 14.95989725 88031
